OBJECT_NAME,OBJECT_ID,EPOCH,MEAN_MOTION,ECCENTRICITY,INCLINATION,RA_OF_ASC_NODE,ARG_OF_PERICENTER,MEAN_ANOMALY,EPHEMERIS_TYPE,CLASSIFICATION_TYPE,NORAD_CAT_ID,ELEMENT_SET_NO,REV_AT_EPOCH,BSTAR,MEAN_MOTION_DOT,MEAN_MOTION_DDOT
MUOS-2,2013-036A,2026-03-01T11:42:21.904128,1.00273004,.0053258,4.7799,45.3176,184.1509,277.3891,0,U,39206,999,4611,0,-.28E-6,0
ALPHASAT,2013-038A,2026-03-01T07:25:34.948128,1.00272215,.0002011,2.9808,2.2352,347.8105,305.3278,0,U,39215,999,4293,0,.118E-5,0
INSAT-3D,2013-038B,2026-03-01T11:04:38.776224,1.00269668,.0002206,1.6477,83.9536,234.1493,136.7787,0,U,39216,999,4600,0,-.357E-5,0
WGS F6 (USA 244),2013-041A,2026-03-01T12:29:27.242016,1.00272645,.0001557,0.0139,131.8842,188.9766,250.5918,0,U,39222,999,4498,0,.71E-6,0
ES'HAIL 1,2013-044A,2026-03-01T05:28:38.576928,1.00269170,.0003099,0.0561,338.1499,0.7815,287.7495,0,U,39233,999,4554,0,.125E-5,0
GSAT-7,2013-044B,2026-03-01T09:22:23.748096,1.00270921,.0006818,0.0131,114.7948,177.3477,81.6281,0,U,39234,999,4417,0,-.95E-6,0
AMOS-4,2013-045A,2026-03-01T04:34:38.604576,1.00271592,.000329,0.0150,195.1319,152.5606,304.9442,0,U,39237,999,4587,0,-.11E-6,0
AEHF-3 (USA 246),2013-050A,2026-03-01T12:23:21.319872,1.00272056,.0091803,5.0283,68.1785,187.8413,324.8550,0,U,39256,999,4457,0,.13E-6,0
ASTRA 2E,2013-056A,2026-03-01T08:26:38.539680,1.00270578,.0002202,0.0654,24.3207,308.0646,341.8887,0,U,39285,999,4533,0,.132E-5,0
FM-6,2013-058A,2026-03-01T10:59:31.435008,1.00267346,.0003259,0.0210,127.6620,52.4922,27.7936,0,U,39360,999,4499,0,-.34E-6,0
RADUGA-1M 3,2013-062A,2026-03-01T05:45:44.520768,1.00274233,.0000296,5.6871,73.7175,260.9417,305.7889,0,U,39375,999,4502,0,.137E-5,0
SES-8,2013-071A,2026-03-01T12:17:28.070016,1.00271196,.0001577,0.0442,274.4791,84.8113,79.3687,0,U,39460,999,4335,0,-.287E-5,0
INMARSAT 5-F1,2013-073A,2026-03-01T11:59:52.985184,1.00270182,.0000625,0.0179,122.3388,201.7776,77.7061,0,U,39476,999,4449,0,.1E-6,0
TKSAT-1 (TUPAC KATARI),2013-075A,2026-03-01T10:19:03.315936,1.00271885,.0002916,0.0307,85.7885,245.9252,255.0599,0,U,39481,999,4452,0,-.213E-5,0
EXPRESS-AM5,2013-077A,2026-03-01T04:08:38.618016,1.00270432,.00025481,0.0217,152.0457,174.9473,34.1809,0,U,39487,999,4527,0,0,0
GSAT-14,2014-001A,2026-03-01T09:22:16.260672,1.00271161,.000476,0.0483,274.9507,40.3983,58.3581,0,U,39498,999,4429,0,-.95E-6,0
THAICOM 6,2014-002A,2026-03-01T09:23:23.652672,1.00272042,.0001511,0.0435,120.7770,280.1757,337.5939,0,U,39500,999,4437,0,-.139E-5,0
TDRS 12,2014-004A,2026-03-01T09:26:36.470688,1.00271116,.000403,3.8729,17.1863,266.5187,336.2491,0,U,39504,999,4319,0,-.285E-5,0
ABS-2,2014-006A,2026-03-01T09:22:31.236384,1.00271578,.0003118,0.0555,274.3739,56.2326,44.0985,0,U,39508,999,4419,0,-.104E-5,0
ATHENA-FIDUS,2014-006B,2026-03-01T08:26:38.539680,1.00269922,.0001642,0.0233,115.2390,234.7466,333.6057,0,U,39509,999,4400,0,.136E-5,0
TURKSAT 4A,2014-007A,2026-03-01T10:55:37.310016,1.00269362,.0004444,0.0751,288.7383,18.1692,58.2268,0,U,39522,999,4388,0,.128E-5,0
EXPRESS-AT1,2014-010A,2026-03-01T05:51:51.435648,1.00271561,.0000492,0.0239,264.0786,359.4188,39.4790,0,U,39612,999,4373,0,.61E-6,0
EXPRESS-AT2,2014-010B,2026-03-01T12:03:38.784672,1.00268496,.0001377,0.0269,137.4783,122.2452,220.3412,0,U,39613,999,4342,0,0,0
AMAZONAS 4A,2014-011A,2026-03-01T10:22:47.955936,1.00271841,.0002849,0.0576,163.2626,148.6650,288.9926,0,U,39616,999,4363,0,-.271E-5,0
ASTRA 5B,2014-011B,2026-03-01T07:25:12.484128,1.00269145,.0004293,0.0977,295.8096,24.8388,333.2452,0,U,39617,999,4358,0,.118E-5,0
IRNSS-1B,2014-017A,2026-02-28T02:02:21.717312,1.00269801,.00210828,29.1168,242.2640,179.2495,181.9470,0,U,39635,999,4370,0,.117E-5,0
LUCH-5V,2014-023A,2026-03-01T12:17:28.086432,1.00272584,.000293,4.8670,70.8004,272.5610,95.0329,0,U,39727,999,4328,0,-.285E-5,0
KAZSAT-3,2014-023B,2026-03-01T11:00:14.368032,1.00273560,.0000374,0.0272,53.9550,341.8708,346.9677,0,U,39728,999,4137,0,.42E-6,0
EUTELSAT 3B,2014-030A,2026-03-01T09:02:03.197760,1.00272392,.0001381,0.0663,0.1366,272.3087,25.3143,0,U,39773,999,4298,0,.2E-7,0
ASIASAT 8 (AMOS-7),2014-046A,2026-03-01T09:31:15.399264,1.00274315,.0001447,0.0540,271.8750,49.5296,85.8735,0,U,40107,999,10106,0,-.351E-5,0
ASIASAT 6,2014-052A,2026-03-01T11:18:05.156064,1.00272190,.0000974,0.0186,209.0628,113.7862,125.8276,0,U,40141,999,4199,0,-.38E-5,0
OPTUS 10,2014-054A,2026-03-01T12:10:12.600192,1.00271899,.0001956,0.1110,317.5346,19.2771,161.0341,0,U,40146,999,4195,0,-.166E-5,0
