MUOS-2                  
1 39206U 13036A   26060.48775352 -.00000028  00000+0  00000+0 0  9997
2 39206   4.7799  45.3176 0053258 184.1509 277.3891  1.00273004 46111
ALPHASAT                
1 39215U 13038A   26060.30943227  .00000118  00000+0  00000+0 0  9997
2 39215   2.9808   2.2352 0002011 347.8105 305.3278  1.00272215 42931
INSAT-3D                
1 39216U 13038B   26060.46155991 -.00000357  00000+0  00000+0 0  9994
2 39216   1.6477  83.9536 0002206 234.1493 136.7787  1.00269668 46005
WGS F6 (USA 244)        
1 39222U 13041A   26060.52045419  .00000071  00000+0  00000+0 0  9997
2 39222   0.0139 131.8842 0001557 188.9766 250.5918  1.00272645 44985
ES'HAIL 1               
1 39233U 13044A   26060.22822427  .00000125  00000+0  00000+0 0  9991
2 39233   0.0561 338.1499 0003099   0.7815 287.7495  1.00269170 45549
GSAT-7                  
1 39234U 13044B   26060.39055264 -.00000095  00000+0  00000+0 0  9994
2 39234   0.0131 114.7948 0006818 177.3477  81.6281  1.00270921 44175
AMOS-4                  
1 39237U 13045A   26060.19072459 -.00000011  00000+0  00000+0 0  9999
2 39237   0.0150 195.1319 0003290 152.5606 304.9442  1.00271592 45877
AEHF-3 (USA 246)        
1 39256U 13050A   26060.51621898  .00000013  00000+0  00000+0 0  9990
2 39256   5.0283  68.1785 0091803 187.8413 324.8550  1.00272056 44573
ASTRA 2E                
1 39285U 13056A   26060.35183495  .00000132  00000+0  00000+0 0  9998
2 39285   0.0654  24.3207 0002202 308.0646 341.8887  1.00270578 45339
FM-6                    
1 39360U 13058A   26060.45800272 -.00000034  00000+0  00000+0 0  9996
2 39360   0.0210 127.6620 0003259  52.4922  27.7936  1.00267346 44992
RADUGA-1M 3             
1 39375U 13062A   26060.24009862  .00000137  00000+0  00000+0 0  9993
2 39375   5.6871  73.7175 0000296 260.9417 305.7889  1.00274233 45025
SES-8                   
1 39460U 13071A   26060.51213044 -.00000287  00000+0  00000+0 0  9994
2 39460   0.0442 274.4791 0001577  84.8113  79.3687  1.00271196 43355
INMARSAT 5-F1           
1 39476U 13073A   26060.49991881  .00000010  00000+0  00000+0 0  9995
2 39476   0.0179 122.3388 0000625 201.7776  77.7061  1.00270182 44498
TKSAT-1 (TUPAC KATARI)  
1 39481U 13075A   26060.42989949 -.00000213  00000+0  00000+0 0  9994
2 39481   0.0307  85.7885 0002916 245.9252 255.0599  1.00271885 44527
EXPRESS-AM5             
1 39487U 13077A   26060.17266919  .00000000  00000+0  00000+0 0  9992
2 39487   0.0217 152.0457 0002548 174.9473  34.1809  1.00270432 45273
GSAT-14                 
1 39498U 14001A   26060.39046598 -.00000095  00000+0  00000+0 0  9990
2 39498   0.0483 274.9507 0004760  40.3983  58.3581  1.00271161 44296
THAICOM 6               
1 39500U 14002A   26060.39124598 -.00000139  00000+0  00000+0 0  9991
2 39500   0.0435 120.7770 0001511 280.1757 337.5939  1.00272042 44378
TDRS 12                 
1 39504U 14004A   26060.39347767 -.00000285  00000+0  00000+0 0  9994
2 39504   3.8729  17.1863 0004030 266.5187 336.2491  1.00271116 43194
ABS-2                   
1 39508U 14006A   26060.39063931 -.00000104  00000+0  00000+0 0  9998
2 39508   0.0555 274.3739 0003118  56.2326  44.0985  1.00271578 44193
ATHENA-FIDUS            
1 39509U 14006B   26060.35183495  .00000136  00000+0  00000+0 0  9997
2 39509   0.0233 115.2390 0001642 234.7466 333.6057  1.00269922 44008
TURKSAT 4A              
1 39522U 14007A   26060.45529294  .00000128  00000+0  00000+0 0  9996
2 39522   0.0751 288.7383 0004444  18.1692  58.2268  1.00269362 43881
EXPRESS-AT1             
1 39612U 14010A   26060.24434532  .00000061  00000+0  00000+0 0  9993
2 39612   0.0239 264.0786 0000492 359.4188  39.4790  1.00271561 43735
EXPRESS-AT2             
1 39613U 14010B   26060.50253223  .00000000  00000+0  00000+0 0  9992
2 39613   0.0269 137.4783 0001377 122.2452 220.3412  1.00268496 43423
AMAZONAS 4A             
1 39616U 14011A   26060.43249949 -.00000271  00000+0  00000+0 0  9999
2 39616   0.0576 163.2626 0002849 148.6650 288.9926  1.00271841 43638
ASTRA 5B                
1 39617U 14011B   26060.30917227  .00000118  00000+0  00000+0 0  9996
2 39617   0.0977 295.8096 0004293  24.8388 333.2452  1.00269145 43581
IRNSS-1B                
1 39635U 14017A   26059.08497358  .00000117  00000+0  00000+0 0  9992
2 39635  29.1168 242.2640 0021082 179.2495 181.9470  1.00269801 43706
LUCH-5V                 
1 39727U 14023A   26060.51213063 -.00000285  00000+0  00000+0 0  9997
2 39727   4.8670  70.8004 0002930 272.5610  95.0329  1.00272584 43285
KAZSAT-3                
1 39728U 14023B   26060.45849963  .00000042  00000+0  00000+0 0  9995
2 39728   0.0272  53.9550 0000374 341.8708 346.9677  1.00273560 41375
EUTELSAT 3B             
1 39773U 14030A   26060.37642590  .00000002  00000+0  00000+0 0  9997
2 39773   0.0663   0.1366 0001381 272.3087  25.3143  1.00272392 42981
ASIASAT 8 (AMOS-7)      
1 40107U 14046A   26060.39670601 -.00000351  00000+0  00000+0 0  9991
2 40107   0.0540 271.8750 0001447  49.5296  85.8735  1.00274315101061
ASIASAT 6               
1 40141U 14052A   26060.47089301 -.00000380  00000+0  00000+0 0  9998
2 40141   0.0186 209.0628 0000974 113.7862 125.8276  1.00272190 41998
OPTUS 10                
1 40146U 14054A   26060.50709028 -.00000166  00000+0  00000+0 0  9996
2 40146   0.1110 317.5346 0001956  19.2771 161.0341  1.00271899 41959
